{
  "type": "FeatureCollection",
  "features": [
    {
      "type": "Feature",
      "properties": {
        "norad_id": 66682,
        "name": "TRANSPORTER-15 S",
        "group": "last-30-days",
        "lat": -65.35876984646738,
        "lon": 83.42119471309368,
        "alt_km": 519.6395045146764,
        "timestamp": "2025-12-21T05:44:50.290311+00:00",
        "meta_object_name": "TRANSPORTER-15 S",
        "meta_object_id": "2025-276S",
        "meta_epoch": "2025-12-20T15:47:34.520352",
        "meta_mean_motion": 15.17090962,
        "meta_eccentricity": 0.00047443,
        "meta_inclination": 97.4466,
        "meta_ra_of_asc_node": 66.2827,
        "meta_arg_of_pericenter": 248.5157,
        "meta_mean_anomaly": 111.5571,
        "meta_ephemeris_type": 0,
        "meta_classification_type": "U",
        "meta_norad_cat_id": 66682,
        "meta_element_set_no": 999,
        "meta_rev_at_epoch": 332,
        "meta_bstar": 0.00034518586,
        "meta_mean_motion_dot": 6.775e-05,
        "meta_mean_motion_ddot": 0,
        "tle_line1": "1 66682U 25276S   25354.65803843  .00006775  00000+0  34519-3 0  9995",
        "tle_line2": "2 66682  97.4466  66.2827 0004744 248.5157 111.5571 15.17090962  3327"
      },
      "geometry": {
        "type": "Point",
        "coordinates": [
          83.42119471309368,
          -65.35876984646738
        ]
      }
    },
    {
      "type": "Feature",
      "properties": {
        "norad_id": 66683,
        "name": "TRANSPORTER-15 T",
        "group": "last-30-days",
        "lat": -68.97726217141401,
        "lon": 86.74629162869421,
        "alt_km": 519.8125750596728,
        "timestamp": "2025-12-21T05:44:50.290321+00:00",
        "meta_object_name": "TRANSPORTER-15 T",
        "meta_object_id": "2025-276T",
        "meta_epoch": "2025-12-20T15:48:31.794048",
        "meta_mean_motion": 15.1698284,
        "meta_eccentricity": 0.00046215,
        "meta_inclination": 97.446,
        "meta_ra_of_asc_node": 66.2805,
        "meta_arg_of_pericenter": 251.2161,
        "meta_mean_anomaly": 108.8571,
        "meta_ephemeris_type": 0,
        "meta_classification_type": "U",
        "meta_norad_cat_id": 66683,
        "meta_element_set_no": 999,
        "meta_rev_at_epoch": 332,
        "meta_bstar": 0.00033963639,
        "meta_mean_motion_dot": 6.644e-05,
        "meta_mean_motion_ddot": 0,
        "tle_line1": "1 66683U 25276T   25354.65870132  .00006644  00000+0  33964-3 0  9999",
        "tle_line2": "2 66683  97.4460  66.2805 0004621 251.2161 108.8571 15.16982840  3321"
      },
      "geometry": {
        "type": "Point",
        "coordinates": [
          86.74629162869421,
          -68.97726217141401
        ]
      }
    },
    {
      "type": "Feature",
      "properties": {
        "norad_id": 66684,
        "name": "TRANSPORTER-15 U",
        "group": "last-30-days",
        "lat": -54.16437326699793,
        "lon": 77.30141594974556,
        "alt_km": 519.539127790732,
        "timestamp": "2025-12-21T05:44:50.290331+00:00",
        "meta_object_name": "TRANSPORTER-15 U",
        "meta_object_id": "2025-276U",
        "meta_epoch": "2025-12-20T22:04:28.712064",
        "meta_mean_motion": 15.17266238,
        "meta_eccentricity": 0.00044093,
        "meta_inclination": 97.4483,
        "meta_ra_of_asc_node": 66.55,
        "meta_arg_of_pericenter": 248.2168,
        "meta_mean_anomaly": 111.8596,
        "meta_ephemeris_type": 0,
        "meta_classification_type": "U",
        "meta_norad_cat_id": 66684,
        "meta_element_set_no": 999,
        "meta_rev_at_epoch": 336,
        "meta_bstar": 0.00046080407,
        "meta_mean_motion_dot": 9.114e-05,
        "meta_mean_motion_ddot": 0,
        "tle_line1": "1 66684U 25276U   25354.91977676  .00009114  00000+0  46080-3 0  9998",
        "tle_line2": "2 66684  97.4483  66.5500 0004409 248.2168 111.8596 15.17266238  3361"
      },
      "geometry": {
        "type": "Point",
        "coordinates": [
          77.30141594974556,
          -54.16437326699793
        ]
      }
    },
    {
      "type": "Feature",
      "properties": {
        "norad_id": 66685,
        "name": "TRANSPORTER-15 V",
        "group": "last-30-days",
        "lat": -48.06640695085608,
        "lon": 75.21882941781827,
        "alt_km": 518.4584567568654,
        "timestamp": "2025-12-21T05:44:50.290344+00:00",
        "meta_object_name": "TRANSPORTER-15 V",
        "meta_object_id": "2025-276V",
        "meta_epoch": "2025-12-20T22:02:52.278432",
        "meta_mean_motion": 15.1740855,
        "meta_eccentricity": 0.0003908,
        "meta_inclination": 97.4424,
        "meta_ra_of_asc_node": 66.5363,
        "meta_arg_of_pericenter": 273.2282,
        "meta_mean_anomaly": 86.8504,
        "meta_ephemeris_type": 0,
        "meta_classification_type": "U",
        "meta_norad_cat_id": 66685,
        "meta_element_set_no": 999,
        "meta_rev_at_epoch": 336,
        "meta_bstar": 0.0005574137,
        "meta_mean_motion_dot": 0.00011087,
        "meta_mean_motion_ddot": 0,
        "tle_line1": "1 66685U 25276V   25354.91866063  .00011087  00000+0  55741-3 0  9992",
        "tle_line2": "2 66685  97.4424  66.5363 0003908 273.2282  86.8504 15.17408550  3367"
      },
      "geometry": {
        "type": "Point",
        "coordinates": [
          75.21882941781827,
          -48.06640695085608
        ]
      }
    },
    {
      "type": "Feature",
      "properties": {
        "norad_id": 66686,
        "name": "TRANSPORTER-15 W",
        "group": "last-30-days",
        "lat": -64.71002282461887,
        "lon": 82.92425509739728,
        "alt_km": 520.1792070659931,
        "timestamp": "2025-12-21T05:44:50.290354+00:00",
        "meta_object_name": "TRANSPORTER-15 W",
        "meta_object_id": "2025-276W",
        "meta_epoch": "2025-12-20T22:07:16.544064",
        "meta_mean_motion": 15.16981057,
        "meta_eccentricity": 0.00039976,
        "meta_inclination": 97.4462,
        "meta_ra_of_asc_node": 66.5422,
        "meta_arg_of_pericenter": 252.6479,
        "meta_mean_anomaly": 107.4318,
        "meta_ephemeris_type": 0,
        "meta_classification_type": "U",
        "meta_norad_cat_id": 66686,
        "meta_element_set_no": 999,
        "meta_rev_at_epoch": 336,
        "meta_bstar": 0.00031397693,
        "meta_mean_motion_dot": 6.136e-05,
        "meta_mean_motion_ddot": 0,
        "tle_line1": "1 66686U 25276W   25354.92171926  .00006136  00000+0  31398-3 0  9992",
        "tle_line2": "2 66686  97.4462  66.5422 0003997 252.6479 107.4318 15.16981057  3363"
      },
      "geometry": {
        "type": "Point",
        "coordinates": [
          82.92425509739728,
          -64.71002282461887
        ]
      }
    },
    {
      "type": "Feature",
      "properties": {
        "norad_id": 66687,
        "name": "TRANSPORTER-15 X",
        "group": "last-30-days",
        "lat": -81.88511447186006,
        "lon": -179.58435877907638,
        "alt_km": 528.5581593652541,
        "timestamp": "2025-12-21T05:44:50.290366+00:00",
        "meta_object_name": "TRANSPORTER-15 X",
        "meta_object_id": "2025-276X",
        "meta_epoch": "2025-12-20T22:14:27.478752",
        "meta_mean_motion": 15.16649392,
        "meta_eccentricity": 0.00084635,
        "meta_inclination": 97.4394,
        "meta_ra_of_asc_node": 66.5157,
        "meta_arg_of_pericenter": 61.5036,
        "meta_mean_anomaly": 298.7049,
        "meta_ephemeris_type": 0,
        "meta_classification_type": "U",
        "meta_norad_cat_id": 66687,
        "meta_element_set_no": 999,
        "meta_rev_at_epoch": 336,
        "meta_bstar": 0.0004244469,
        "meta_mean_motion_dot": 8.248e-05,
        "meta_mean_motion_ddot": 0,
        "tle_line1": "1 66687U 25276X   25354.92670693  .00008248  00000+0  42445-3 0  9999",
        "tle_line2": "2 66687  97.4394  66.5157 0008463  61.5036 298.7049 15.16649392  3360"
      },
      "geometry": {
        "type": "Point",
        "coordinates": [
          -179.58435877907638,
          -81.88511447186006
        ]
      }
    },
    {
      "type": "Feature",
      "properties": {
        "norad_id": 66688,
        "name": "TRANSPORTER-15 Y",
        "group": "last-30-days",
        "lat": -60.376345420524615,
        "lon": 80.1440399162731,
        "alt_km": 520.1080149454856,
        "timestamp": "2025-12-21T05:44:50.290376+00:00",
        "meta_object_name": "TRANSPORTER-15 Y",
        "meta_object_id": "2025-276Y",
        "meta_epoch": "2025-12-20T18:56:08.380896",
        "meta_mean_motion": 15.1705049,
        "meta_eccentricity": 0.00035955,
        "meta_inclination": 97.444,
        "meta_ra_of_asc_node": 66.4081,
        "meta_arg_of_pericenter": 257.6157,
        "meta_mean_anomaly": 102.4675,
        "meta_ephemeris_type": 0,
        "meta_classification_type": "U",
        "meta_norad_cat_id": 66688,
        "meta_element_set_no": 999,
        "meta_rev_at_epoch": 334,
        "meta_bstar": 0.00024823849,
        "meta_mean_motion_dot": 4.846e-05,
        "meta_mean_motion_ddot": 0,
        "tle_line1": "1 66688U 25276Y   25354.78898589  .00004846  00000+0  24824-3 0  9991",
        "tle_line2": "2 66688  97.4440  66.4081 0003595 257.6157 102.4675 15.17050490  3341"
      },
      "geometry": {
        "type": "Point",
        "coordinates": [
          80.1440399162731,
          -60.376345420524615
        ]
      }
    }
  ]
}